HODOYOSHI-4             
1 40011U 14033B   26166.48754743  .00001348  00000+0  15148-3 0  9997
2 40011  97.5448 351.3923 0022554 314.4866  45.4507 14.88127395648552
DEIMOS-2                
1 40013U 14033D   26166.50843972  .00000707  00000+0  71957-4 0  9994
2 40013  97.5835  41.0565 0001524  48.1408 311.9942 14.93719234637474
HODOYOSHI-3             
1 40015U 14033F   26166.43355885  .00000887  00000+0  10814-3 0  9992
2 40015  97.6415 329.5447 0032871   3.0990 357.0423 14.85385240647360
SPOT 7                  
1 40053U 14034A   26166.46935169  .00000408  00000+0  92584-4 0  9991
2 40053  98.0636 229.0053 0001222  91.1119 269.0222 14.60957237636884
SKYSAT-B                
1 40072U 14037D   26166.51128302  .00001177  00000+0  13491-3 0  9997
2 40072  98.3839 125.3806 0004253 289.0650  71.0104 14.88023956645716
WORLDVIEW-3 (WV-3)      
1 40115U 14048A   26166.48285481  .00000693  00000+0  87463-4 0  9998
2 40115  97.8567 241.3392 0001126  28.4824 331.6452 14.85019457641657
GAOFEN-2                
1 40118U 14049A   26166.48715593  .00000946  00000+0  12935-3 0  9996
2 40118  98.0117 230.6959 0006044 233.2228 126.8430 14.80898906638983
YAOGAN-21               
1 40143U 14053A   26166.52366971  .00009063  00000+0  35081-3 0  9992
2 40143  97.1473 206.8308 0009937  98.1846 262.0521 15.26357148654708
YAOGAN-22               
1 40275U 14063A   26166.36046294 -.00000037  00000+0  25400-4 0  9992
2 40275 100.7721 317.6033 0006298 189.4107 170.6887 13.15531111559576
ASNARO                  
1 40298U 14070A   26166.51287513  .00006460  00000+0  30805-3 0  9992
2 40298  97.3462 242.6726 0005443 169.3437 190.7914 15.19413795643755
YAOGAN-24               
1 40310U 14072A   26166.52312645  .00000166  00000+0  31618-4 0  9996
2 40310  98.1481 303.8467 0012541 269.6015  90.3757 14.76219834623472
CBERS 4                 
1 40336U 14079A   26166.50376911  .00000228  00000+0  93938-4 0  9997
2 40336  98.3538 223.3882 0001883  65.5809 294.5574 14.35509037603715
YAOGAN-26               
1 40362U 14088A   26166.51680486  .00019387  00000+0  38119-3 0  9997
2 40362  97.0635 166.7642 0006084  70.3916 289.7991 15.47294591637449
SMAP                    
1 40376U 15003A   26166.50723587  .00000357  00000+0  78139-4 0  9993
2 40376  98.1276 173.6256 0001307  96.0602 264.0749 14.63365332607370
KOMPSAT-3A              
1 40536U 15014A   26166.50320992  .00021536  00000+0  31285-3 0  9998
2 40536  97.6883 157.7424 0056368 180.6126 179.5067 15.53925349621553
SENTINEL-2A             
1 40697U 15028A   26166.46643595  .00000264  00000+0  11721-3 0  9991
2 40697  98.5691 241.3425 0001103  89.0215 271.1094 14.30815348573485
GAOFEN-8                
1 40701U 15030A   26166.53428265  .00017356  00000+0  35820-3 0  9999
2 40701  97.6899 359.8051 0008539 192.9133 167.1898 15.45901327611191
CARBONITE 1 (CBNT-1)    
1 40718U 15032D   26166.49636922  .00000899  00000+0  11513-3 0  9992
2 40718  97.6499 344.6335 0013286 304.1515  55.8439 14.83580928589096
YAOGAN-27               
1 40878U 15040A   26166.50814377 -.00000440  00000+0 -10462-2 0  9997
2 40878 100.1144 152.9635 0007629 214.8410 145.2205 13.16068290517441
GAOFEN-9 01             
1 40894U 15047A   26166.51058826  .00000826  00000+0  10752-3 0  9991
2 40894  97.6275 202.2815 0028294 143.0967 217.2202 14.82880831579941
YAOGAN-28               
1 41026U 15064A   26166.55391544  .00005383  00000+0  20312-3 0  9995
2 41026  97.3074 304.8483 0010484 188.9336 171.1719 15.27402358590435
YAOGAN-29               
1 41038U 15069A   26166.55857801  .00000411  00000+0  57168-4 0  9993
2 41038  98.0026 195.1887 0002672  56.9530 303.1940 14.83083715570380
KENT RIDGE 1            
1 41167U 15077B   26165.67496432  .00003934  00000+0  13031-3 0  9999
2 41167  14.9792 284.6775 0008240 203.0027 156.9926 15.23119109580711
GAOFEN-4                
1 41194U 15083A   26166.42252164 -.00000332  00000+0  00000+0 0  9990
2 41194   0.3519  83.8118 0004377 114.9362 322.7699  1.00269584 38515
JASON-3                 
1 41240U 16002A   26166.44923348 -.00000067  00000+0 -17021-4 0  9997
2 41240  66.0401 129.4888 0008537 272.8851  87.1191 12.87628042487024
SENTINEL-3A             
1 41335U 16011A   26166.46331062  .00000090  00000+0  55366-4 0  9998
2 41335  98.6249 233.8716 0001395 102.2493 257.8844 14.26739518537813
ZIYUAN 3-02 (ZY 3-02)   
1 41556U 16033A   26166.54550022  .00004632  00000+0  20884-3 0  9997
2 41556  97.3839 242.3517 0011218 296.2641  63.7441 15.21468005557733
CARTOSAT-2C             
1 41599U 16040A   26166.61144991  .00003431  00000+0  16619-3 0  9991
2 41599  97.4484 226.6122 0010063 137.4714 222.7302 15.19181378553470
SKYSAT-C1               
1 41601U 16040C   26166.06690290  .00008398  00000+0  23958-3 0  9993
2 41601  96.9560 197.9016 0003653  62.2193 297.9423 15.36271096557544
LAPAN-A3                
1 41603U 16040E   26166.55941481  .00002941  00000+0  94181-4 0  9995
2 41603  97.1486 162.7586 0011087  31.2268 328.9632 15.33095166554562
GAOFEN-3                
1 41727U 16049A   26166.55765931  .00000256  00000+0  90973-4 0  9997
2 41727  98.4004 174.3680 0001350  99.3014 260.8328 14.42216246518412
