OBJECT_NAME,OBJECT_ID,EPOCH,MEAN_MOTION,ECCENTRICITY,INCLINATION,RA_OF_ASC_NODE,ARG_OF_PERICENTER,MEAN_ANOMALY,EPHEMERIS_TYPE,CLASSIFICATION_TYPE,NORAD_CAT_ID,ELEMENT_SET_NO,REV_AT_EPOCH,BSTAR,MEAN_MOTION_DOT,MEAN_MOTION_DDOT
HODOYOSHI-4,2014-033B,2026-06-15T11:42:04.097952,14.88127395,.0022554,97.5448,351.3923,314.4866,45.4507,0,U,40011,999,64855,.15148E-3,.1348E-4,0
DEIMOS-2,2014-033D,2026-06-15T12:12:09.191808,14.93719234,.0001524,97.5835,41.0565,48.1408,311.9942,0,U,40013,999,63747,.71957E-4,.707E-5,0
HODOYOSHI-3,2014-033F,2026-06-15T10:24:19.484640,14.85385240,.0032871,97.6415,329.5447,3.0990,357.0423,0,U,40015,999,64736,.10814E-3,.887E-5,0
SPOT 7,2014-034A,2026-06-15T11:15:51.986016,14.60957237,.0001222,98.0636,229.0053,91.1119,269.0222,0,U,40053,999,63688,.92584E-4,.408E-5,0
SKYSAT-B,2014-037D,2026-06-15T12:16:14.852928,14.88023956,.0004253,98.3839,125.3806,289.0650,71.0104,0,U,40072,999,64571,.13491E-3,.1177E-4,0
WORLDVIEW-3 (WV-3),2014-048A,2026-06-15T11:35:18.655584,14.85019457,.0001126,97.8567,241.3392,28.4824,331.6452,0,U,40115,999,64165,.87463E-4,.693E-5,0
GAOFEN-2,2014-049A,2026-06-15T11:41:30.272352,14.80898906,.0006044,98.0117,230.6959,233.2228,126.8430,0,U,40118,999,63898,.12935E-3,.946E-5,0
YAOGAN-21,2014-053A,2026-06-15T12:34:05.062944,15.26357148,.0009937,97.1473,206.8308,98.1846,262.0521,0,U,40143,999,65470,.35081E-3,.9063E-4,0
YAOGAN-22,2014-063A,2026-06-15T08:39:03.998016,13.15531111,.0006298,100.7721,317.6033,189.4107,170.6887,0,U,40275,999,55957,.254E-4,-.37E-6,0
ASNARO,2014-070A,2026-06-15T12:18:32.411232,15.19413795,.0005443,97.3462,242.6726,169.3437,190.7914,0,U,40298,999,64375,.30805E-3,.646E-4,0
YAOGAN-24,2014-072A,2026-06-15T12:33:18.125280,14.76219834,.0012541,98.1481,303.8467,269.6015,90.3757,0,U,40310,999,62347,.31618E-4,.166E-5,0
CBERS 4,2014-079A,2026-06-15T12:05:25.651104,14.35509037,.0001883,98.3538,223.3882,65.5809,294.5574,0,U,40336,999,60371,.93938E-4,.228E-5,0
YAOGAN-26,2014-088A,2026-06-15T12:24:11.939904,15.47294591,.0006084,97.0635,166.7642,70.3916,289.7991,0,U,40362,999,63744,.38119E-3,.19387E-3,0
SMAP,2015-003A,2026-06-15T12:10:25.179168,14.63365332,.0001307,98.1276,173.6256,96.0602,264.0749,0,U,40376,999,60737,.78139E-4,.357E-5,0
KOMPSAT-3A,2015-014A,2026-06-15T12:04:37.337088,15.53925349,.0056368,97.6883,157.7424,180.6126,179.5067,0,U,40536,999,62155,.31285E-3,.21536E-3,0
SENTINEL-2A,2015-028A,2026-06-15T11:11:40.066080,14.30815348,.0001103,98.5691,241.3425,89.0215,271.1094,0,U,40697,999,57348,.11721E-3,.264E-5,0
GAOFEN-8,2015-030A,2026-06-15T12:49:22.020960,15.45901327,.0008539,97.6899,359.8051,192.9133,167.1898,0,U,40701,999,61119,.3582E-3,.17356E-3,0
CARBONITE 1 (CBNT-1),2015-032D,2026-06-15T11:54:46.300608,14.83580928,.0013286,97.6499,344.6335,304.1515,55.8439,0,U,40718,999,58909,.11513E-3,.899E-5,0
YAOGAN-27,2015-040A,2026-06-15T12:11:43.621728,13.16068290,.0007629,100.1144,152.9635,214.8410,145.2205,0,U,40878,999,51744,-.10462E-2,-.44E-5,0
GAOFEN-9 01,2015-047A,2026-06-15T12:15:14.825664,14.82880831,.0028294,97.6275,202.2815,143.0967,217.2202,0,U,40894,999,57994,.10752E-3,.826E-5,0
YAOGAN-28,2015-064A,2026-06-15T13:17:38.294016,15.27402358,.0010484,97.3074,304.8483,188.9336,171.1719,0,U,41026,999,59043,.20312E-3,.5383E-4,0
YAOGAN-29,2015-069A,2026-06-15T13:24:21.140064,14.83083715,.0002672,98.0026,195.1887,56.9530,303.1940,0,U,41038,999,57038,.57168E-4,.411E-5,0
KENT RIDGE 1,2015-077B,2026-06-14T16:11:56.917248,15.23119109,.00082403,14.9792,284.6775,203.0027,156.9926,0,U,41167,999,58071,.13030832E-3,.3934E-4,0
GAOFEN-4,2015-083A,2026-06-15T10:08:25.869696,1.00269584,.0004377,0.3519,83.8118,114.9362,322.7699,0,U,41194,999,3851,0,-.332E-5,0
JASON-3,2016-002A,2026-06-15T10:46:53.772672,12.87628042,.0008537,66.0401,129.4888,272.8851,87.1191,0,U,41240,999,48702,-.17021E-4,-.67E-6,0
SENTINEL-3A,2016-011A,2026-06-15T11:07:10.037568,14.26739518,.0001395,98.6249,233.8716,102.2493,257.8844,0,U,41335,999,53781,.55366E-4,.9E-6,0
ZIYUAN 3-02 (ZY 3-02),2016-033A,2026-06-15T13:05:31.219008,15.21468005,.0011218,97.3839,242.3517,296.2641,63.7441,0,U,41556,999,55773,.20884E-3,.4632E-4,0
CARTOSAT-2C,2016-040A,2026-06-15T14:40:29.272224,15.19181378,.0010063,97.4484,226.6122,137.4714,222.7302,0,U,41599,999,55347,.16619E-3,.3431E-4,0
SKYSAT-C1,2016-040C,2026-06-15T01:36:20.410560,15.36271096,.00036534,96.9560,197.9016,62.2193,297.9423,0,U,41601,999,55754,.23958167E-3,.8398E-4,0
LAPAN-A3,2016-040E,2026-06-15T13:25:33.439584,15.33095166,.0011087,97.1486,162.7586,31.2268,328.9632,0,U,41603,999,55456,.94181E-4,.2941E-4,0
GAOFEN-3,2016-049A,2026-06-15T13:23:01.764384,14.42216246,.000135,98.4004,174.3680,99.3014,260.8328,0,U,41727,999,51841,.90973E-4,.256E-5,0
